start=new Date('2023-06-18T00:00:00.000Z').valueOf();
sats=[{"COUNTRY_CODE":"US","GP_ID":"234170184","EPHEMERIS_TYPE":"0","MEAN_MOTION_DDOT":"0.0000000000000","LAUNCH_DATE":"2021-12-02","TLE_LINE1":"1 49761U 21115AP  23168.63881358 -.00004204  00000-0 -24636-3 0  9995","TIME_SYSTEM":"UTC","OBJECT_NAME":"STARLINK-3203","PERIAPSIS":"539.256","REF_FRAME":"TEME","SEMIMAJOR_AXIS":"6917.933","OBJECT_ID":"2021-115AP","RA_OF_ASC_NODE":"290.5659","DECAY_DATE":null,"RCS_SIZE":"LARGE","ELEMENT_SET_NO":"999","REV_AT_EPOCH":"8530","CLASSIFICATION_TYPE":"U","MEAN_ANOMALY":"258.1424","APOAPSIS":"540.340","EPOCH":"2023-06-17T15:19:53.493312","CENTER_NAME":"EARTH","INCLINATION":"53.2175","FILE":"3935891","ECCENTRICITY":"0.00007830","MEAN_MOTION":"15.08822799","SITE":"AFETR","MEAN_ELEMENT_THEORY":"SGP4","OBJECT_TYPE":"PAYLOAD","BSTAR":"-0.00024636000000","NORAD_CAT_ID":"49761","ARG_OF_PERICENTER":"101.9656","MEAN_MOTION_DOT":"-0.00004204","TLE_LINE2":"2 49761  53.2175 290.5659 0000783 101.9656 258.1424 15.08822799 85307","PERIOD":"95.439"},{"INCLINATION":"53.2180","FILE":"3935891","CENTER_NAME":"EARTH","EPOCH":"2023-06-17T15:46:23.570400","APOAPSIS":"540.454","CLASSIFICATION_TYPE":"U","MEAN_ANOMALY":"274.5711","REV_AT_EPOCH":"8531","MEAN_ELEMENT_THEORY":"SGP4","SITE":"AFETR","MEAN_MOTION":"15.08825312","ECCENTRICITY":"0.00009600","TLE_LINE2":"2 49762  53.2180 290.4839 0000960  85.5391 274.5711 15.08825312 85319","MEAN_MOTION_DOT":"-0.00001753","ARG_OF_PERICENTER":"85.5391","NORAD_CAT_ID":"49762","BSTAR":"-0.00009213500000","OBJECT_TYPE":"PAYLOAD","PERIOD":"95.438","LAUNCH_DATE":"2021-12-02","MEAN_MOTION_DDOT":"0.0000000000000","EPHEMERIS_TYPE":"0","GP_ID":"234170434","COUNTRY_CODE":"US","OBJECT_NAME":"STARLINK-3195","TIME_SYSTEM":"UTC","TLE_LINE1":"1 49762U 21115AQ  23168.65721725 -.00001753  00000-0 -92135-4 0  9995","REF_FRAME":"TEME","PERIAPSIS":"539.126","ELEMENT_SET_NO":"999","RCS_SIZE":"LARGE","DECAY_DATE":null,"RA_OF_ASC_NODE":"290.4839","OBJECT_ID":"2021-115AQ","SEMIMAJOR_AXIS":"6917.925"},{"COUNTRY_CODE":"US","GP_ID":"234171186","EPHEMERIS_TYPE":"0","MEAN_MOTION_DDOT":"0.0000000000000","LAUNCH_DATE":"2021-12-02","TLE_LINE1":"1 49763U 21115AR  23168.71241460 -.00003940  00000-0 -22966-3 0  9990","TIME_SYSTEM":"UTC","OBJECT_NAME":"STARLINK-3198","PERIAPSIS":"539.117","REF_FRAME":"TEME","SEMIMAJOR_AXIS":"6917.915","OBJECT_ID":"2021-115AR","RA_OF_ASC_NODE":"290.2376","DECAY_DATE":null,"RCS_SIZE":"LARGE","ELEMENT_SET_NO":"999","REV_AT_EPOCH":"8532","MEAN_ANOMALY":"264.3817","CLASSIFICATION_TYPE":"U","APOAPSIS":"540.443","EPOCH":"2023-06-17T17:05:52.621440","CENTER_NAME":"EARTH","FILE":"3935891","INCLINATION":"53.2184","ECCENTRICITY":"0.00009580","SITE":"AFETR","MEAN_MOTION":"15.08828730","MEAN_ELEMENT_THEORY":"SGP4","OBJECT_TYPE":"PAYLOAD","BSTAR":"-0.00022966000000","NORAD_CAT_ID":"49763","ARG_OF_PERICENTER":"95.7285","TLE_LINE2":"2 49763  53.2184 290.2376 0000958  95.7285 264.3817 15.08828730 85322","MEAN_MOTION_DOT":"-0.00003940","PERIOD":"95.438"},{"TLE_LINE2":"2 49764  53.2172 290.4490 0001047  99.8875 260.2235 15.08831855 86433","MEAN_MOTION_DOT":"-0.00001232","ARG_OF_PERICENTER":"99.8875","NORAD_CAT_ID":"49764","BSTAR":"-0.00005934300000","OBJECT_TYPE":"PAYLOAD","PERIOD":"95.438","INCLINATION":"53.2172","FILE":"3935891","EPOCH":"2023-06-17T15:56:59.253216","CENTER_NAME":"EARTH","APOAPSIS":"540.495","MEAN_ANOMALY":"260.2235","CLASSIFICATION_TYPE":"U","REV_AT_EPOCH":"8643","MEAN_ELEMENT_THEORY":"SGP4","MEAN_MOTION":"15.08831855","SITE":"AFETR","ECCENTRICITY":"0.00010470","REF_FRAME":"TEME","PERIAPSIS":"539.046","ELEMENT_SET_NO":"999","RCS_SIZE":"LARGE","DECAY_DATE":null,"OBJECT_ID":"2021-115AS","RA_OF_ASC_NODE":"290.4490","SEMIMAJOR_AXIS":"6917.905","LAUNCH_DATE":"2021-12-02","MEAN_MOTION_DDOT":"0.0000000000000","EPHEMERIS_TYPE":"0","GP_ID":"234170937","COUNTRY_CODE":"US","OBJECT_NAME":"STARLINK-3206","TIME_SYSTEM":"UTC","TLE_LINE1":"1 49764U 21115AS  23168.66457469 -.00001232  00000-0 -59343-4 0  9995"},{"LAUNCH_DATE":"2021-12-02","EPHEMERIS_TYPE":"0","MEAN_MOTION_DDOT":"0.0000000000000","GP_ID":"234169685","COUNTRY_CODE":"US","OBJECT_NAME":"STARLINK-3227","TIME_SYSTEM":"UTC","TLE_LINE1":"1 49765U 21115AT  23168.65449253 -.00004453  00000-0 -26201-3 0  9991","REF_FRAME":"TEME","PERIAPSIS":"539.077","ELEMENT_SET_NO":"999","DECAY_DATE":null,"RCS_SIZE":"LARGE","SEMIMAJOR_AXIS":"6917.936","RA_OF_ASC_NODE":"290.5071","OBJECT_ID":"2021-115AT","EPOCH":"2023-06-17T15:42:28.154592","CENTER_NAME":"EARTH","FILE":"3935891","INCLINATION":"53.2174","APOAPSIS":"540.524","MEAN_ANOMALY":"285.0900","CLASSIFICATION_TYPE":"U","REV_AT_EPOCH":"8531","MEAN_ELEMENT_THEORY":"SGP4","MEAN_MOTION":"15.08821939","SITE":"AFETR","ECCENTRICITY":"0.00010460","MEAN_MOTION_DOT":"-0.00004453","TLE_LINE2":"2 49765  53.2174 290.5071 0001046  75.0208 285.0900 15.08821939 85319","ARG_OF_PERICENTER":"75.0208","BSTAR":"-0.00026201000000","NORAD_CAT_ID":"49765","OBJECT_TYPE":"PAYLOAD","PERIOD":"95.439"},{"SEMIMAJOR_AXIS":"6917.915","RA_OF_ASC_NODE":"290.4386","OBJECT_ID":"2021-115AU","DECAY_DATE":null,"RCS_SIZE":"LARGE","ELEMENT_SET_NO":"999","PERIAPSIS":"539.019","REF_FRAME":"TEME","TLE_LINE1":"1 49766U 21115AU  23168.66921508 -.00002112  00000-0 -11466-3 0  9998","TIME_SYSTEM":"UTC","OBJECT_NAME":"STARLINK-3190","COUNTRY_CODE":"US","GP_ID":"234169935","EPHEMERIS_TYPE":"0","MEAN_MOTION_DDOT":"0.0000000000000","LAUNCH_DATE":"2021-12-02","PERIOD":"95.438","OBJECT_TYPE":"PAYLOAD","BSTAR":"-0.00011466000000","NORAD_CAT_ID":"49766","ARG_OF_PERICENTER":"99.4078","TLE_LINE2":"2 49766  53.2168 290.4386 0001100  99.4078 260.7038 15.08828740 85316","MEAN_MOTION_DOT":"-0.00002112","ECCENTRICITY":"0.00011000","MEAN_MOTION":"15.08828740","SITE":"AFETR","MEAN_ELEMENT_THEORY":"SGP4","REV_AT_EPOCH":"8531","MEAN_ANOMALY":"260.7038","CLASSIFICATION_TYPE":"U","APOAPSIS":"540.541","EPOCH":"2023-06-17T16:03:40.182912","CENTER_NAME":"EARTH","INCLINATION":"53.2168","FILE":"3935891"},{"SITE":"AFETR","MEAN_MOTION":"15.08825182","MEAN_ELEMENT_THEORY":"SGP4","ECCENTRICITY":"0.00009430","APOAPSIS":"540.443","FILE":"3935891","INCLINATION":"53.2173","EPOCH":"2023-06-17T17:27:05.230368","CENTER_NAME":"EARTH","REV_AT_EPOCH":"8532","MEAN_ANOMALY":"285.8507","CLASSIFICATION_TYPE":"U","PERIOD":"95.438","ARG_OF_PERICENTER":"74.2589","TLE_LINE2":"2 49767  53.2173 290.1695 0000943  74.2589 285.8507 15.08825182 85322","MEAN_MOTION_DOT":"-0.00001306","OBJECT_TYPE":"PAYLOAD","NORAD_CAT_ID":"49767","BSTAR":"-0.00006402200000","TIME_SYSTEM":"UTC","OBJECT_NAME":"STARLINK-3192","TLE_LINE1":"1 49767U 21115AV  23168.72714387 -.00001306  00000-0 -64022-4 0  9992","MEAN_MOTION_DDOT":"0.0000000000000","EPHEMERIS_TYPE":"0","LAUNCH_DATE":"2021-12-02","COUNTRY_CODE":"US","GP_ID":"234170687","RCS_SIZE":"LARGE","DECAY_DATE":null,"ELEMENT_SET_NO":"999","OBJECT_ID":"2021-115AV","RA_OF_ASC_NODE":"290.1695","SEMIMAJOR_AXIS":"6917.926","REF_FRAME":"TEME","PERIAPSIS":"539.138"},{"ECCENTRICITY":"0.00012430","MEAN_ELEMENT_THEORY":"SGP4","SITE":"AFETR","MEAN_MOTION":"15.08827157","CLASSIFICATION_TYPE":"U","MEAN_ANOMALY":"275.4124","REV_AT_EPOCH":"8531","INCLINATION":"53.2174","FILE":"3935891","EPOCH":"2023-06-17T16:12:53.294112","CENTER_NAME":"EARTH","APOAPSIS":"540.645","PERIOD":"95.438","NORAD_CAT_ID":"49768","BSTAR":"-0.00014248000000","OBJECT_TYPE":"PAYLOAD","MEAN_MOTION_DOT":"-0.00002554","TLE_LINE2":"2 49768  53.2174 290.3993 0001243  84.7010 275.4124 15.08827157 85319","ARG_OF_PERICENTER":"84.7010","TLE_LINE1":"1 49768U 21115AW  23168.67561683 -.00002554  00000-0 -14248-3 0  9996","OBJECT_NAME":"STARLINK-3196","TIME_SYSTEM":"UTC","GP_ID":"234171437","COUNTRY_CODE":"US","LAUNCH_DATE":"2021-12-02","MEAN_MOTION_DDOT":"0.0000000000000","EPHEMERIS_TYPE":"0","OBJECT_ID":"2021-115AW","RA_OF_ASC_NODE":"290.3993","SEMIMAJOR_AXIS":"6917.920","ELEMENT_SET_NO":"999","RCS_SIZE":"LARGE","DECAY_DATE":null,"PERIAPSIS":"538.925","REF_FRAME":"TEME"},{"OBJECT_TYPE":"PAYLOAD","BSTAR":"-0.00008744100000","NORAD_CAT_ID":"49769","ARG_OF_PERICENTER":"106.9263","TLE_LINE2":"2 49769  53.2176 290.1478 0001143 106.9263 253.1854 15.08825602 85321","MEAN_MOTION_DOT":"-0.00001679","PERIOD":"95.438","REV_AT_EPOCH":"8532","CLASSIFICATION_TYPE":"U","MEAN_ANOMALY":"253.1854","APOAPSIS":"540.580","EPOCH":"2023-06-17T17:49:40.301184","CENTER_NAME":"EARTH","INCLINATION":"53.2176","FILE":"3935891","ECCENTRICITY":"0.00011430","MEAN_MOTION":"15.08825602","SITE":"AFETR","MEAN_ELEMENT_THEORY":"SGP4","PERIAPSIS":"538.999","REF_FRAME":"TEME","SEMIMAJOR_AXIS":"6917.924","OBJECT_ID":"2021-115AX","RA_OF_ASC_NODE":"290.1478","DECAY_DATE":null,"RCS_SIZE":"LARGE","ELEMENT_SET_NO":"999","COUNTRY_CODE":"US","GP_ID":"234170185","EPHEMERIS_TYPE":"0","MEAN_MOTION_DDOT":"0.0000000000000","LAUNCH_DATE":"2021-12-02","TLE_LINE1":"1 49769U 21115AX  23168.74282756 -.00001679  00000-0 -87441-4 0  9999","TIME_SYSTEM":"UTC","OBJECT_NAME":"STARLINK-3208"},{"OBJECT_TYPE":"PAYLOAD","NORAD_CAT_ID":"49770","BSTAR":"-0.00011037000000","ARG_OF_PERICENTER":"103.5895","MEAN_MOTION_DOT":"-0.00002043","TLE_LINE2":"2 49770  53.2168 290.1144 0001042 103.5895 256.5213 15.08825137 86449","PERIOD":"95.438","REV_AT_EPOCH":"8644","CLASSIFICATION_TYPE":"U","MEAN_ANOMALY":"256.5213","APOAPSIS":"540.512","FILE":"3935891","INCLINATION":"53.2168","EPOCH":"2023-06-17T18:00:16.109280","CENTER_NAME":"EARTH","ECCENTRICITY":"0.00010420","MEAN_MOTION":"15.08825137","SITE":"AFETR","MEAN_ELEMENT_THEORY":"SGP4","PERIAPSIS":"539.070","REF_FRAME":"TEME","RA_OF_ASC_NODE":"290.1144","OBJECT_ID":"2021-115AY","SEMIMAJOR_AXIS":"6917.926","RCS_SIZE":"LARGE","DECAY_DATE":null,"ELEMENT_SET_NO":"999","COUNTRY_CODE":"US","GP_ID":"234170435","MEAN_MOTION_DDOT":"0.0000000000000","EPHEMERIS_TYPE":"0","LAUNCH_DATE":"2021-12-02","TLE_LINE1":"1 49770U 21115AY  23168.75018645 -.00002043  00000-0 -11037-3 0  9999","TIME_SYSTEM":"UTC","OBJECT_NAME":"STARLINK-3191"}];
